{
    "links": {
        "self": "http://www.neowsapp.com/rest/v1/neo/3713070?api_key=iIulBulltgU6a56xZRHN4H3l9WmuAYTsLGpBGhQ2"
    },
    "id": "3713070",
    "neo_reference_id": "3713070",
    "name": "(2015 EO6)",
    "designation": "2015 EO6",
    "nasa_jpl_url": "http://ssd.jpl.nasa.gov/sbdb.cgi?sstr=3713070",
    "absolute_magnitude_h": 30.2,
    "estimated_diameter": {
        "kilometers": {
            "estimated_diameter_min": 0.0024241248,
            "estimated_diameter_max": 0.0054205079
        },
        "meters": {
            "estimated_diameter_min": 2.424124811,
            "estimated_diameter_max": 5.4205078634
        },
        "miles": {
            "estimated_diameter_min": 0.0015062809,
            "estimated_diameter_max": 0.0033681464
        },
        "feet": {
            "estimated_diameter_min": 7.9531656449,
            "estimated_diameter_max": 17.7838190184
        }
    },
    "is_potentially_hazardous_asteroid": false,
    "close_approach_data": [
        {
            "close_approach_date": "2015-03-11",
            "close_approach_date_full": "2015-Mar-11 22:43",
            "epoch_date_close_approach": 1426113780000,
            "relative_velocity": {
                "kilometers_per_second": "22.8157229827",
                "kilometers_per_hour": "82136.6027376916",
                "miles_per_hour": "51036.490739984"
            },
            "miss_distance": {
                "astronomical": "0.0026084402",
                "lunar": "1.0146832378",
                "kilometers": "390217.097942374",
                "miles": "242469.6611938012"
            },
            "orbiting_body": "Moon"
        },
        {
            "close_approach_date": "2015-03-12",
            "close_approach_date_full": "2015-Mar-12 00:31",
            "epoch_date_close_approach": 1426120260000,
            "relative_velocity": {
                "kilometers_per_second": "23.8163904366",
                "kilometers_per_hour": "85739.005571616",
                "miles_per_hour": "53274.8837675411"
            },
            "miss_distance": {
                "astronomical": "0.0007315966",
                "lunar": "0.2845910774",
                "kilometers": "109445.293059242",
                "miles": "68006.1516198596"
            },
            "orbiting_body": "Earth"
        }
    ],
    "orbital_data": {
        "orbit_id": "4",
        "orbit_determination_date": "2017-04-06 08:35:10",
        "first_observation_date": "2015-03-11",
        "last_observation_date": "2015-03-11",
        "data_arc_in_days": null,
        "observations_used": 13,
        "orbit_uncertainty": "8",
        "minimum_orbit_intersection": ".000715716",
        "jupiter_tisserand_invariant": "3.121",
        "epoch_osculation": "2457092.5",
        "eccentricity": ".7599788991761719",
        "semi_major_axis": "2.299680332190768",
        "inclination": "6.533535260805334",
        "ascending_node_longitude": "170.5351315280516",
        "orbital_period": "1273.795274224551",
        "perihelion_distance": ".5519718048753348",
        "perihelion_argument": "92.03426441625706",
        "aphelion_distance": "4.047388859506201",
        "perihelion_time": "2457138.486512131445",
        "mean_anomaly": "347.0032926779396",
        "mean_motion": ".2826199839838135",
        "equinox": "J2000",
        "orbit_class": {
            "orbit_class_type": "APO",
            "orbit_class_description": "Near-Earth asteroid orbits which cross the Earth’s orbit similar to that of 1862 Apollo",
            "orbit_class_range": "a (semi-major axis) > 1.0 AU; q (perihelion) < 1.017 AU"
        }
    },
    "is_sentry_object": false
}